{
  "norad_id": 68497,
  "name": "TRANSPORTER-16 OBJECT CK",
  "history": [
    {
      "epoch": "2026-04-13T22:06:00.728928Z",
      "apogee_km": 593.7432414274454,
      "perigee_km": 590.2921784274649,
      "latitude_deg": 2.5869075261267852e-05,
      "longitude_deg": -110.41493249645264,
      "height_km": 595.8748817141587,
      "semi_major_axis_km": 6970.154709927455,
      "eccentricity": 0.00024756,
      "inclination_deg": 97.7542,
      "raan_deg": 63.1928,
      "arg_perigee_deg": 118.3185,
      "mean_anomaly_deg": 241.8284,
      "mean_motion_rev_day": 14.91898012
    }
  ]
}